{"type": "FeatureCollection", "features": [ {"type": "Feature", "properties": {"norad_id": 57401, "name": "TIANMU-1 09", "group": "weather", "lat": 23.853790820304514, "lon": -141.78446276977363, "alt_km": 479.4644036187274, "timestamp": "2025-12-11T18:59:45.708761+00:00", "meta": {"OBJECT_NAME": "TIANMU-1 09", "OBJECT_ID": "2023-101C", "EPOCH": "2025-12-11T05:44:38.485248", "MEAN_MOTION": 15.28064621, "ECCENTRICITY": 0.00067875, "INCLINATION": 97.2823, "RA_OF_ASC_NODE": 34.4344, "ARG_OF_PERICENTER": 87.8921, "MEAN_ANOMALY": 272.3096, "EPHEMERIS_TYPE": 0, "CLASSIFICATION_TYPE": "U", "NORAD_CAT_ID": 57401, "ELEMENT_SET_NO": 999, "REV_AT_EPOCH": 13292, "BSTAR": 0.00095367616, "MEAN_MOTION_DOT": 0.00026108, "MEAN_MOTION_DDOT": 0}, "tle": {"line1": "1 57401U 23101C   25345.23933432  .00026108  00000+0  95368-3 0  9992", "line2": "2 57401  97.2823  34.4344 0006787  87.8921 272.3096 15.28064621132926"}}, "geometry": {"type": "Point", "coordinates": [-141.78446276977363, 23.853790820304514]}}, {"type": "Feature", "properties": {"norad_id": 57402, "name": "TIANMU-1 10", "group": "weather", "lat": -32.1886801978837, "lon": 40.444937905897866, "alt_km": 490.4935679760283, "timestamp": "2025-12-11T18:59:45.708797+00:00", "meta": {"OBJECT_NAME": "TIANMU-1 10", "OBJECT_ID": "2023-101D", "EPOCH": "2025-12-11T06:33:53.913024", "MEAN_MOTION": 15.2805741, "ECCENTRICITY": 0.00085758, "INCLINATION": 97.2904, "RA_OF_ASC_NODE": 35.316, "ARG_OF_PERICENTER": 87.6289, "MEAN_ANOMALY": 272.5933, "EPHEMERIS_TYPE": 0, "CLASSIFICATION_TYPE": "U", "NORAD_CAT_ID": 57402, "ELEMENT_SET_NO": 999, "REV_AT_EPOCH": 13292, "BSTAR": 0.00095599133, "MEAN_MOTION_DOT": 0.00026177, "MEAN_MOTION_DDOT": 0}, "tle": {"line1": "1 57402U 23101D   25345.27354066  .00026177  00000+0  95599-3 0  9999", "line2": "2 57402  97.2904  35.3160 0008575  87.6289 272.5933 15.28057410132925"}}, "geometry": {"type": "Point", "coordinates": [40.444937905897866, -32.1886801978837]}}, {"type": "Feature", "properties": {"norad_id": 57490, "name": "FENGYUN 3F", "group": "weather", "lat": -55.07317445208143, "lon": -138.57889858333476, "alt_km": 833.0660722902694, "timestamp": "2025-12-11T18:59:45.708818+00:00", "meta": {"OBJECT_NAME": "FENGYUN 3F", "OBJECT_ID": "2023-111A", "EPOCH": "2025-12-11T06:02:58.332192", "MEAN_MOTION": 14.19892948, "ECCENTRICITY": 6.544e-05, "INCLINATION": 98.7085, "RA_OF_ASC_NODE": 53.5695, "ARG_OF_PERICENTER": 99.0458, "MEAN_ANOMALY": 261.0793, "EPHEMERIS_TYPE": 0, "CLASSIFICATION_TYPE": "U", "NORAD_CAT_ID": 57490, "ELEMENT_SET_NO": 999, "REV_AT_EPOCH": 12219, "BSTAR": 8.0611345e-05, "MEAN_MOTION_DOT": 1.27e-06, "MEAN_MOTION_DDOT": 0}, "tle": {"line1": "1 57490U 23111A   25345.25206403  .00000127  00000+0  80611-4 0  9993", "line2": "2 57490  98.7085  53.5695 0000654  99.0458 261.0793 14.19892948122195"}}, "geometry": {"type": "Point", "coordinates": [-138.57889858333476, -55.07317445208143]}}, {"type": "Feature", "properties": {"norad_id": 58584, "name": "ARKTIKA-M 2", "group": "weather", "lat": -23.226640086264364, "lon": 7.50729441800802, "alt_km": 4243.115042282908, "timestamp": "2025-12-11T18:59:45.708831+00:00", "meta": {"OBJECT_NAME": "ARKTIKA-M 2", "OBJECT_ID": "2023-198A", "EPOCH": "2025-12-08T20:10:13.977120", "MEAN_MOTION": 2.0060476, "ECCENTRICITY": 0.68646991, "INCLINATION": 63.2247, "RA_OF_ASC_NODE": 175.3152, "ARG_OF_PERICENTER": 268.1185, "MEAN_ANOMALY": 18.8267, "EPHEMERIS_TYPE": 0, "CLASSIFICATION_TYPE": "U", "NORAD_CAT_ID": 58584, "ELEMENT_SET_NO": 999, "REV_AT_EPOCH": 1450, "BSTAR": 0, "MEAN_MOTION_DOT": 1.66e-06, "MEAN_MOTION_DDOT": 0}, "tle": {"line1": "1 58584U 23198A   25342.84043955  .00000166  00000+0  00000+0 0  9998", "line2": "2 58584  63.2247 175.3152 6864699 268.1185  18.8267  2.00604760 14506"}}, "geometry": {"type": "Point", "coordinates": [7.50729441800802, -23.226640086264364]}}, {"type": "Feature", "properties": {"norad_id": 58645, "name": "TIANMU-1 11", "group": "weather", "lat": 21.11835727424881, "lon": -171.7066114900558, "alt_km": 497.07327554448784, "timestamp": "2025-12-11T18:59:45.708845+00:00", "meta": {"OBJECT_NAME": "TIANMU-1 11", "OBJECT_ID": "2023-205A", "EPOCH": "2025-12-11T07:16:32.452032", "MEAN_MOTION": 15.24571305, "ECCENTRICITY": 0.00080252, "INCLINATION": 97.3611, "RA_OF_ASC_NODE": 4.9515, "ARG_OF_PERICENTER": 316.4338, "MEAN_ANOMALY": 43.6265, "EPHEMERIS_TYPE": 0, "CLASSIFICATION_TYPE": "U", "NORAD_CAT_ID": 58645, "ELEMENT_SET_NO": 999, "REV_AT_EPOCH": 10887, "BSTAR": 0.00040448089, "MEAN_MOTION_DOT": 9.907e-05, "MEAN_MOTION_DDOT": 0}, "tle": {"line1": "1 58645U 23205A   25345.30315338  .00009907  00000+0  40448-3 0  9992", "line2": "2 58645  97.3611   4.9515 0008025 316.4338  43.6265 15.24571305108877"}}, "geometry": {"type": "Point", "coordinates": [-171.7066114900558, 21.11835727424881]}}, {"type": "Feature", "properties": {"norad_id": 58646, "name": "TIANMU-1 12", "group": "weather", "lat": 11.134728695699764, "lon": 3.779307661620918, "alt_km": 492.82016069972815, "timestamp": "2025-12-11T18:59:45.708855+00:00", "meta": {"OBJECT_NAME": "TIANMU-1 12", "OBJECT_ID": "2023-205B", "EPOCH": "2025-12-11T06:20:39.755328", "MEAN_MOTION": 15.24467954, "ECCENTRICITY": 0.00059231, "INCLINATION": 97.3599, "RA_OF_ASC_NODE": 4.7193, "ARG_OF_PERICENTER": 297.9119, "MEAN_ANOMALY": 62.1518, "EPHEMERIS_TYPE": 0, "CLASSIFICATION_TYPE": "U", "NORAD_CAT_ID": 58646, "ELEMENT_SET_NO": 999, "REV_AT_EPOCH": 10885, "BSTAR": 0.00080057896, "MEAN_MOTION_DOT": 0.00019635, "MEAN_MOTION_DDOT": 0}, "tle": {"line1": "1 58646U 23205B   25345.26434902  .00019635  00000+0  80058-3 0  9997", "line2": "2 58646  97.3599   4.7193 0005923 297.9119  62.1518 15.24467954108856"}}, "geometry": {"type": "Point", "coordinates": [3.779307661620918, 11.134728695699764]}}, {"type": "Feature", "properties": {"norad_id": 58647, "name": "TIANMU-1 13", "group": "weather", "lat": -7.1244467266284275, "lon": -175.48842751464593, "alt_km": 495.7964933713238, "timestamp": "2025-12-11T18:59:45.708867+00:00", "meta": {"OBJECT_NAME": "TIANMU-1 13", "OBJECT_ID": "2023-205C", "EPOCH": "2025-12-11T07:09:01.845792", "MEAN_MOTION": 15.24511098, "ECCENTRICITY": 0.00060375, "INCLINATION": 97.3626, "RA_OF_ASC_NODE": 4.9526, "ARG_OF_PERICENTER": 273.7648, "MEAN_ANOMALY": 86.2899, "EPHEMERIS_TYPE": 0, "CLASSIFICATION_TYPE": "U", "NORAD_CAT_ID": 58647, "ELEMENT_SET_NO": 999, "REV_AT_EPOCH": 10885, "BSTAR": 0.00091939532, "MEAN_MOTION_DOT": 0.00022597, "MEAN_MOTION_DDOT": 0}, "tle": {"line1": "1 58647U 23205C   25345.29793803  .00022597  00000+0  91940-3 0  9992", "line2": "2 58647  97.3626   4.9526 0006037 273.7648  86.2899 15.24511098108854"}}, "geometry": {"type": "Point", "coordinates": [-175.48842751464593, -7.1244467266284275]}}, {"type": "Feature", "properties": {"norad_id": 58648, "name": "TIANMU-1 14", "group": "weather", "lat": -79.02737955578084, "lon": 46.56930542042354, "alt_km": 494.9654838138413, "timestamp": "2025-12-11T18:59:45.708878+00:00", "meta": {"OBJECT_NAME": "TIANMU-1 14", "OBJECT_ID": "2023-205D", "EPOCH": "2025-12-11T05:10:35.143392", "MEAN_MOTION": 15.2447676, "ECCENTRICITY": 0.00068657, "INCLINATION": 97.3559, "RA_OF_ASC_NODE": 4.2219, "ARG_OF_PERICENTER": 279.3551, "MEAN_ANOMALY": 80.691, "EPHEMERIS_TYPE": 0, "CLASSIFICATION_TYPE": "U", "NORAD_CAT_ID": 58648, "ELEMENT_SET_NO": 999, "REV_AT_EPOCH": 10884, "BSTAR": 0.00041408597, "MEAN_MOTION_DOT": 0.00010113, "MEAN_MOTION_DDOT": 0}, "tle": {"line1": "1 58648U 23205D   25345.21568453  .00010113  00000+0  41409-3 0  9992", "line2": "2 58648  97.3559   4.2219 0006865 279.3551  80.6910 15.24476760108843"}}, "geometry": {"type": "Point", "coordinates": [46.56930542042354, -79.02737955578084]}}, {"type": "Feature", "properties": {"norad_id": 58660, "name": "TIANMU-1 19", "group": "weather", "lat": 18.062567095761086, "lon": -80.7279524073336, "alt_km": 483.097617158106, "timestamp": "2025-12-11T18:59:45.708888+00:00", "meta": {"OBJECT_NAME": "TIANMU-1 19", "OBJECT_ID": "2023-208A", "EPOCH": "2025-12-11T07:17:13.658784", "MEAN_MOTION": 15.27808532, "ECCENTRICITY": 0.00040385, "INCLINATION": 97.4385, "RA_OF_ASC_NODE": 96.3432, "ARG_OF_PERICENTER": 259.7085, "MEAN_ANOMALY": 100.3699, "EPHEMERIS_TYPE": 0, "CLASSIFICATION_TYPE": "U", "NORAD_CAT_ID": 58660, "ELEMENT_SET_NO": 999, "REV_AT_EPOCH": 10860, "BSTAR": 0.00055883652, "MEAN_MOTION_DOT": 0.0001512, "MEAN_MOTION_DDOT": 0}, "tle": {"line1": "1 58660U 23208A   25345.30363031  .00015120  00000+0  55884-3 0  9999", "line2": "2 58660  97.4385  96.3432 0004038 259.7085 100.3699 15.27808532108605"}}, "geometry": {"type": "Point", "coordinates": [-80.7279524073336, 18.062567095761086]}}, {"type": "Feature", "properties": {"norad_id": 58661, "name": "TIANMU-1 20", "group": "weather", "lat": -51.316076275520885, "lon": -92.10650755317742, "alt_km": 482.3746882087562, "timestamp": "2025-12-11T18:59:45.708899+00:00", "meta": {"OBJECT_NAME": "TIANMU-1 20", "OBJECT_ID": "2023-208B", "EPOCH": "2025-12-11T06:59:23.748576", "MEAN_MOTION": 15.289984, "ECCENTRICITY": 0.00062933, "INCLINATION": 97.4323, "RA_OF_ASC_NODE": 96.7771, "ARG_OF_PERICENTER": 272.1845, "MEAN_ANOMALY": 87.8675, "EPHEMERIS_TYPE": 0, "CLASSIFICATION_TYPE": "U", "NORAD_CAT_ID": 58661, "ELEMENT_SET_NO": 999, "REV_AT_EPOCH": 10867, "BSTAR": 0.00052124222, "MEAN_MOTION_DOT": 0.00014624, "MEAN_MOTION_DDOT": 0}, "tle": {"line1": "1 58661U 23208B   25345.29124709  .00014624  00000+0  52124-3 0  9997", "line2": "2 58661  97.4323  96.7771 0006293 272.1845  87.8675 15.28998400108671"}}, "geometry": {"type": "Point", "coordinates": [-92.10650755317742, -51.316076275520885]}}]}